{
  "type": "FeatureCollection",
  "features": [
    {
      "type": "Feature",
      "properties": {
        "norad_id": 66561,
        "name": "STARLINK-35305",
        "group": "last-30-days",
        "lat": 39.70549474168518,
        "lon": 100.16878349161811,
        "alt_km": 441.086037968098,
        "timestamp": "2025-12-27T02:10:14.905189+00:00",
        "meta_object_name": "STARLINK-35305",
        "meta_object_id": "2025-268E",
        "meta_epoch": "2025-12-26T20:00:01.999008",
        "meta_mean_motion": 15.41049917,
        "meta_eccentricity": 0.0001498,
        "meta_inclination": 43.0008,
        "meta_ra_of_asc_node": 38.6411,
        "meta_arg_of_pericenter": 283.2317,
        "meta_mean_anomaly": 158.8945,
        "meta_ephemeris_type": 0,
        "meta_classification_type": "U",
        "meta_norad_cat_id": 66561,
        "meta_element_set_no": 999,
        "meta_rev_at_epoch": 593,
        "meta_bstar": -0.054409,
        "meta_mean_motion_dot": -0.02042627,
        "meta_mean_motion_ddot": 0,
        "tle_line1": "1 66561U 25268E   25360.83335647 -.02042627  00000+0 -54409-1 0  9999",
        "tle_line2": "2 66561  43.0008  38.6411 0001498 283.2317 158.8945 15.41049917  5930"
      },
      "geometry": {
        "type": "Point",
        "coordinates": [
          100.16878349161811,
          39.70549474168518
        ]
      }
    },
    {
      "type": "Feature",
      "properties": {
        "norad_id": 66562,
        "name": "STARLINK-35579",
        "group": "last-30-days",
        "lat": 34.55091973775796,
        "lon": 84.83027510639305,
        "alt_km": 444.36639860793,
        "timestamp": "2025-12-27T02:10:14.905202+00:00",
        "meta_object_name": "STARLINK-35579",
        "meta_object_id": "2025-268F",
        "meta_epoch": "2025-12-26T20:00:01.999008",
        "meta_mean_motion": 15.40256544,
        "meta_eccentricity": 0.0001607,
        "meta_inclination": 43.0013,
        "meta_ra_of_asc_node": 38.6709,
        "meta_arg_of_pericenter": 278.2576,
        "meta_mean_anomaly": 151.3726,
        "meta_ephemeris_type": 0,
        "meta_classification_type": "U",
        "meta_norad_cat_id": 66562,
        "meta_element_set_no": 999,
        "meta_rev_at_epoch": 599,
        "meta_bstar": -0.058516,
        "meta_mean_motion_dot": -0.02165711,
        "meta_mean_motion_ddot": 0,
        "tle_line1": "1 66562U 25268F   25360.83335647 -.02165711  00000+0 -58516-1 0  9993",
        "tle_line2": "2 66562  43.0013  38.6709 0001607 278.2576 151.3726 15.40256544  5996"
      },
      "geometry": {
        "type": "Point",
        "coordinates": [
          84.83027510639305,
          34.55091973775796
        ]
      }
    },
    {
      "type": "Feature",
      "properties": {
        "norad_id": 66563,
        "name": "STARLINK-35437",
        "group": "last-30-days",
        "lat": 42.49977848848855,
        "lon": 116.64538782559572,
        "alt_km": 438.3495359826884,
        "timestamp": "2025-12-27T02:10:14.905213+00:00",
        "meta_object_name": "STARLINK-35437",
        "meta_object_id": "2025-268G",
        "meta_epoch": "2025-12-26T20:00:01.999008",
        "meta_mean_motion": 15.41883219,
        "meta_eccentricity": 0.0001555,
        "meta_inclination": 43.0008,
        "meta_ra_of_asc_node": 38.6122,
        "meta_arg_of_pericenter": 281.6836,
        "meta_mean_anomaly": 172.3795,
        "meta_ephemeris_type": 0,
        "meta_classification_type": "U",
        "meta_norad_cat_id": 66563,
        "meta_element_set_no": 999,
        "meta_rev_at_epoch": 605,
        "meta_bstar": -0.052604,
        "meta_mean_motion_dot": -0.02032425,
        "meta_mean_motion_ddot": 0,
        "tle_line1": "1 66563U 25268G   25360.83335647 -.02032425  00000+0 -52604-1 0  9991",
        "tle_line2": "2 66563  43.0008  38.6122 0001555 281.6836 172.3795 15.41883219  6052"
      },
      "geometry": {
        "type": "Point",
        "coordinates": [
          116.64538782559572,
          42.49977848848855
        ]
      }
    },
    {
      "type": "Feature",
      "properties": {
        "norad_id": 66564,
        "name": "STARLINK-35358",
        "group": "last-30-days",
        "lat": 42.819211621652265,
        "lon": 133.17713737536965,
        "alt_km": 435.96462773920575,
        "timestamp": "2025-12-27T02:10:14.905228+00:00",
        "meta_object_name": "STARLINK-35358",
        "meta_object_id": "2025-268H",
        "meta_epoch": "2025-12-26T20:00:01.999008",
        "meta_mean_motion": 15.42691132,
        "meta_eccentricity": 0.0001718,
        "meta_inclination": 43.0006,
        "meta_ra_of_asc_node": 38.5834,
        "meta_arg_of_pericenter": 277.2577,
        "meta_mean_anomaly": 188.1868,
        "meta_ephemeris_type": 0,
        "meta_classification_type": "U",
        "meta_norad_cat_id": 66564,
        "meta_element_set_no": 999,
        "meta_rev_at_epoch": 600,
        "meta_bstar": -0.049078,
        "meta_mean_motion_dot": -0.01957778,
        "meta_mean_motion_ddot": 0,
        "tle_line1": "1 66564U 25268H   25360.83335647 -.01957778  00000+0 -49078-1 0  9999",
        "tle_line2": "2 66564  43.0006  38.5834 0001718 277.2577 188.1868 15.42691132  6007"
      },
      "geometry": {
        "type": "Point",
        "coordinates": [
          133.17713737536965,
          42.819211621652265
        ]
      }
    },
    {
      "type": "Feature",
      "properties": {
        "norad_id": 66565,
        "name": "STARLINK-35893",
        "group": "last-30-days",
        "lat": 40.93039312231603,
        "lon": 148.54805963648616,
        "alt_km": 433.74915566935306,
        "timestamp": "2025-12-27T02:10:14.905239+00:00",
        "meta_object_name": "STARLINK-35893",
        "meta_object_id": "2025-268J",
        "meta_epoch": "2025-12-26T20:00:01.999008",
        "meta_mean_motion": 15.4357278,
        "meta_eccentricity": 0.0001545,
        "meta_inclination": 43.0007,
        "meta_ra_of_asc_node": 38.5556,
        "meta_arg_of_pericenter": 282.1335,
        "meta_mean_anomaly": 194.116,
        "meta_ephemeris_type": 0,
        "meta_classification_type": "U",
        "meta_norad_cat_id": 66565,
        "meta_element_set_no": 999,
        "meta_rev_at_epoch": 600,
        "meta_bstar": -0.050624,
        "meta_mean_motion_dot": -0.02067121,
        "meta_mean_motion_ddot": 0,
        "tle_line1": "1 66565U 25268J   25360.83335647 -.02067121  00000+0 -50624-1 0  9994",
        "tle_line2": "2 66565  43.0007  38.5556 0001545 282.1335 194.1160 15.43572780  6005"
      },
      "geometry": {
        "type": "Point",
        "coordinates": [
          148.54805963648616,
          40.93039312231603
        ]
      }
    },
    {
      "type": "Feature",
      "properties": {
        "norad_id": 66566,
        "name": "STARLINK-35871",
        "group": "last-30-days",
        "lat": 38.5835207877242,
        "lon": 158.16328324004124,
        "alt_km": 432.53355978361924,
        "timestamp": "2025-12-27T02:10:14.905250+00:00",
        "meta_object_name": "STARLINK-35871",
        "meta_object_id": "2025-268K",
        "meta_epoch": "2025-12-26T20:00:01.999008",
        "meta_mean_motion": 15.4410199,
        "meta_eccentricity": 0.0001544,
        "meta_inclination": 43.0007,
        "meta_ra_of_asc_node": 38.5377,
        "meta_arg_of_pericenter": 281.9542,
        "meta_mean_anomaly": 201.5603,
        "meta_ephemeris_type": 0,
        "meta_classification_type": "U",
        "meta_norad_cat_id": 66566,
        "meta_element_set_no": 999,
        "meta_rev_at_epoch": 605,
        "meta_bstar": -0.049647,
        "meta_mean_motion_dot": -0.02064614,
        "meta_mean_motion_ddot": 0,
        "tle_line1": "1 66566U 25268K   25360.83335647 -.02064614  00000+0 -49647-1 0  9992",
        "tle_line2": "2 66566  43.0007  38.5377 0001544 281.9542 201.5603 15.44101990  6055"
      },
      "geometry": {
        "type": "Point",
        "coordinates": [
          158.16328324004124,
          38.5835207877242
        ]
      }
    },
    {
      "type": "Feature",
      "properties": {
        "norad_id": 66567,
        "name": "STARLINK-35825",
        "group": "last-30-days",
        "lat": -8.477094487650444,
        "lon": -133.94547613384194,
        "alt_km": 397.7385950364105,
        "timestamp": "2025-12-27T02:10:14.905261+00:00",
        "meta_object_name": "STARLINK-35825",
        "meta_object_id": "2025-268L",
        "meta_epoch": "2025-12-24T05:35:52.806912",
        "meta_mean_motion": 15.56426808,
        "meta_eccentricity": 0.00033868,
        "meta_inclination": 43.0005,
        "meta_ra_of_asc_node": 53.7242,
        "meta_arg_of_pericenter": 293.6521,
        "meta_mean_anomaly": 66.3986,
        "meta_ephemeris_type": 0,
        "meta_classification_type": "U",
        "meta_norad_cat_id": 66567,
        "meta_element_set_no": 999,
        "meta_rev_at_epoch": 641,
        "meta_bstar": 0.0017686293,
        "meta_mean_motion_dot": 0.00130148,
        "meta_mean_motion_ddot": 0,
        "tle_line1": "1 66567U 25268L   25358.23325008  .00130148  00000+0  17686-2 0  9995",
        "tle_line2": "2 66567  43.0005  53.7242 0003386 293.6521  66.3986 15.56426808  6419"
      },
      "geometry": {
        "type": "Point",
        "coordinates": [
          -133.94547613384194,
          -8.477094487650444
        ]
      }
    }
  ]
}